{
  "type": "FeatureCollection",
  "features": [
    {
      "type": "Feature",
      "properties": {
        "norad_id": 38001,
        "name": "COSMOS 2251 DEB",
        "group": "cosmos-2251-debris",
        "lat": 5.157452140543495,
        "lon": 143.9248769006276,
        "alt_km": 620.5959822845298,
        "timestamp": "2025-12-07T14:37:05.601545+00:00",
        "meta_object_name": "COSMOS 2251 DEB",
        "meta_object_id": "1993-036BRC",
        "meta_epoch": "2025-12-06T11:08:14.987040",
        "meta_mean_motion": 14.78968143,
        "meta_eccentricity": 0.00652918,
        "meta_inclination": 74.0002,
        "meta_ra_of_asc_node": 144.6967,
        "meta_arg_of_pericenter": 295.3198,
        "meta_mean_anomaly": 95.4785,
        "meta_ephemeris_type": 0,
        "meta_classification_type": "U",
        "meta_norad_cat_id": 38001,
        "meta_element_set_no": 999,
        "meta_rev_at_epoch": 74615,
        "meta_bstar": 0.0012854263,
        "meta_mean_motion_dot": 9.815e-05,
        "meta_mean_motion_ddot": 0,
        "tle_line1": "1 38001U 93036BRC 25340.46406235  .00009815  00000+0  12854-2 0  9991",
        "tle_line2": "2 38001  74.0002 144.6967 0065291 295.3198  95.4785 14.78968143746156"
      },
      "geometry": {
        "type": "Point",
        "coordinates": [
          143.9248769006276,
          5.157452140543495
        ]
      }
    },
    {
      "type": "Feature",
      "properties": {
        "norad_id": 38006,
        "name": "COSMOS 2251 DEB",
        "group": "cosmos-2251-debris",
        "lat": 72.09841926570937,
        "lon": 163.9294885368108,
        "alt_km": 741.8448457382192,
        "timestamp": "2025-12-07T14:37:05.601555+00:00",
        "meta_object_name": "COSMOS 2251 DEB",
        "meta_object_id": "1993-036BRH",
        "meta_epoch": "2025-12-04T21:24:00.571392",
        "meta_mean_motion": 14.45613673,
        "meta_eccentricity": 0.0074849,
        "meta_inclination": 73.8488,
        "meta_ra_of_asc_node": 52.8364,
        "meta_arg_of_pericenter": 2.834,
        "meta_mean_anomaly": 357.3225,
        "meta_ephemeris_type": 0,
        "meta_classification_type": "U",
        "meta_norad_cat_id": 38006,
        "meta_element_set_no": 999,
        "meta_rev_at_epoch": 62846,
        "meta_bstar": 0.0044211,
        "meta_mean_motion_dot": 0.00016183,
        "meta_mean_motion_ddot": 0,
        "tle_line1": "1 38006U 93036BRH 25338.89167328  .00016183  00000+0  44211-2 0  9995",
        "tle_line2": "2 38006  73.8488  52.8364 0074849   2.8340 357.3225 14.45613673628467"
      },
      "geometry": {
        "type": "Point",
        "coordinates": [
          163.9294885368108,
          72.09841926570937
        ]
      }
    },
    {
      "type": "Feature",
      "properties": {
        "norad_id": 38054,
        "name": "COSMOS 2251 DEB",
        "group": "cosmos-2251-debris",
        "lat": -37.95550707858226,
        "lon": -98.78059880410588,
        "alt_km": 921.046559203679,
        "timestamp": "2025-12-07T14:37:05.601565+00:00",
        "meta_object_name": "COSMOS 2251 DEB",
        "meta_object_id": "1993-036BRL",
        "meta_epoch": "2025-12-06T19:35:06.065952",
        "meta_mean_motion": 13.62293123,
        "meta_eccentricity": 0.0360398,
        "meta_inclination": 73.9587,
        "meta_ra_of_asc_node": 275.4844,
        "meta_arg_of_pericenter": 254.7432,
        "meta_mean_anomaly": 133.9151,
        "meta_ephemeris_type": 0,
        "meta_classification_type": "U",
        "meta_norad_cat_id": 38054,
        "meta_element_set_no": 999,
        "meta_rev_at_epoch": 67099,
        "meta_bstar": 0.0049752628,
        "meta_mean_motion_dot": 5.934e-05,
        "meta_mean_motion_ddot": 0,
        "tle_line1": "1 38054U 93036BRL 25340.81604243  .00005934  00000+0  49753-2 0  9993",
        "tle_line2": "2 38054  73.9587 275.4844 0360398 254.7432 133.9151 13.62293123670997"
      },
      "geometry": {
        "type": "Point",
        "coordinates": [
          -98.78059880410588,
          -37.95550707858226
        ]
      }
    },
    {
      "type": "Feature",
      "properties": {
        "norad_id": 38055,
        "name": "COSMOS 2251 DEB",
        "group": "cosmos-2251-debris",
        "lat": -62.19296424981045,
        "lon": -176.10721818086182,
        "alt_km": 617.6477070181827,
        "timestamp": "2025-12-07T14:37:05.601575+00:00",
        "meta_object_name": "COSMOS 2251 DEB",
        "meta_object_id": "1993-036BRM",
        "meta_epoch": "2025-12-06T22:44:42.352224",
        "meta_mean_motion": 14.76877741,
        "meta_eccentricity": 0.00656872,
        "meta_inclination": 74.009,
        "meta_ra_of_asc_node": 218.1295,
        "meta_arg_of_pericenter": 346.9333,
        "meta_mean_anomaly": 31.8095,
        "meta_ephemeris_type": 0,
        "meta_classification_type": "U",
        "meta_norad_cat_id": 38055,
        "meta_element_set_no": 999,
        "meta_rev_at_epoch": 60597,
        "meta_bstar": 0.0013662663,
        "meta_mean_motion_dot": 9.93e-05,
        "meta_mean_motion_ddot": 0,
        "tle_line1": "1 38055U 93036BRM 25340.94771241  .00009930  00000+0  13663-2 0  9992",
        "tle_line2": "2 38055  74.0090 218.1295 0065687 346.9333  31.8095 14.76877741605979"
      },
      "geometry": {
        "type": "Point",
        "coordinates": [
          -176.10721818086182,
          -62.19296424981045
        ]
      }
    },
    {
      "type": "Feature",
      "properties": {
        "norad_id": 38060,
        "name": "COSMOS 2251 DEB",
        "group": "cosmos-2251-debris",
        "lat": 38.00730038196651,
        "lon": -41.917996899390474,
        "alt_km": 638.1898808603701,
        "timestamp": "2025-12-07T14:37:05.601585+00:00",
        "meta_object_name": "COSMOS 2251 DEB",
        "meta_object_id": "1993-036BRS",
        "meta_epoch": "2025-11-30T16:46:11.567136",
        "meta_mean_motion": 14.63742552,
        "meta_eccentricity": 0.0057629,
        "meta_inclination": 74.0424,
        "meta_ra_of_asc_node": 318.4162,
        "meta_arg_of_pericenter": 67.815,
        "meta_mean_anomaly": 292.9119,
        "meta_ephemeris_type": 0,
        "meta_classification_type": "U",
        "meta_norad_cat_id": 38060,
        "meta_element_set_no": 999,
        "meta_rev_at_epoch": 71788,
        "meta_bstar": 0.00051174098,
        "meta_mean_motion_dot": 2.701e-05,
        "meta_mean_motion_ddot": 0,
        "tle_line1": "1 38060U 93036BRS 25334.69874499  .00002701  00000+0  51174-3 0  9991",
        "tle_line2": "2 38060  74.0424 318.4162 0057629  67.8150 292.9119 14.63742552717884"
      },
      "geometry": {
        "type": "Point",
        "coordinates": [
          -41.917996899390474,
          38.00730038196651
        ]
      }
    },
    {
      "type": "Feature",
      "properties": {
        "norad_id": 38062,
        "name": "COSMOS 2251 DEB",
        "group": "cosmos-2251-debris",
        "lat": 18.804159497849195,
        "lon": 115.22511924319289,
        "alt_km": 584.3826528906075,
        "timestamp": "2025-12-07T14:37:05.601595+00:00",
        "meta_object_name": "COSMOS 2251 DEB",
        "meta_object_id": "1993-036BRU",
        "meta_epoch": "2025-12-06T04:12:38.753856",
        "meta_mean_motion": 14.94290132,
        "meta_eccentricity": 0.00122346,
        "meta_inclination": 74.0094,
        "meta_ra_of_asc_node": 303.7202,
        "meta_arg_of_pericenter": 72.1633,
        "meta_mean_anomaly": 298.7726,
        "meta_ephemeris_type": 0,
        "meta_classification_type": "U",
        "meta_norad_cat_id": 38062,
        "meta_element_set_no": 999,
        "meta_rev_at_epoch": 62932,
        "meta_bstar": 0.0035053507,
        "meta_mean_motion_dot": 0.00037877,
        "meta_mean_motion_ddot": 0,
        "tle_line1": "1 38062U 93036BRU 25340.17544854  .00037877  00000+0  35054-2 0  9992",
        "tle_line2": "2 38062  74.0094 303.7202 0012234  72.1633 298.7726 14.94290132629324"
      },
      "geometry": {
        "type": "Point",
        "coordinates": [
          115.22511924319289,
          18.804159497849195
        ]
      }
    },
    {
      "type": "Feature",
      "properties": {
        "norad_id": 38064,
        "name": "COSMOS 2251 DEB",
        "group": "cosmos-2251-debris",
        "lat": 62.07756055616099,
        "lon": 166.60434254283643,
        "alt_km": 732.3471827969788,
        "timestamp": "2025-12-07T14:37:05.601605+00:00",
        "meta_object_name": "COSMOS 2251 DEB",
        "meta_object_id": "1993-036BRW",
        "meta_epoch": "2025-12-06T20:10:26.684832",
        "meta_mean_motion": 14.56222427,
        "meta_eccentricity": 0.00475228,
        "meta_inclination": 74.0217,
        "meta_ra_of_asc_node": 135.3356,
        "meta_arg_of_pericenter": 255.8276,
        "meta_mean_anomaly": 103.7605,
        "meta_ephemeris_type": 0,
        "meta_classification_type": "U",
        "meta_norad_cat_id": 38064,
        "meta_element_set_no": 999,
        "meta_rev_at_epoch": 71779,
        "meta_bstar": 0.0017262128,
        "meta_mean_motion_dot": 7.728e-05,
        "meta_mean_motion_ddot": 0,
        "tle_line1": "1 38064U 93036BRW 25340.84058663  .00007728  00000+0  17262-2 0  9999",
        "tle_line2": "2 38064  74.0217 135.3356 0047522 255.8276 103.7605 14.56222427717793"
      },
      "geometry": {
        "type": "Point",
        "coordinates": [
          166.60434254283643,
          62.07756055616099
        ]
      }
    }
  ]
}